{"fetched_at":"2026-03-30T20:46:33Z","count":15425,"tles":[{"name":"STARLINK-36453","line1":"1 67341U 26003H   26087.77668356  .00032145  00000+0  11724-2 0  9994","line2":"2 67341  43.0023 119.2134 0001137 277.3163  82.7559 15.27584354 11740","category":"Starlink"}]}