{
  "norad_id": 67341,
  "name": "STARLINK-36453",
  "history": [
    {
      "epoch": "2026-03-28T18:38:25.459584",
      "apogee_km": 483.8167915106169,
      "perigee_km": 482.2553257459349,
      "latitude_deg": -5.637737466180969,
      "longitude_deg": -91.3383782398887,
      "semi_major_axis_km": 6861.173058628276,
      "eccentricity": 0.00011379,
      "inclination_deg": 43.0023,
      "raan_deg": 119.2134,
      "arg_perigee_deg": 277.3163,
      "mean_anomaly_deg": 82.7559,
      "mean_motion_rev_day": 15.27584354
    }
  ]
}